{"type": "FeatureCollection", "features": [{"type": "Feature", "properties": {"norad_id": 50032, "name": "COSMOS 1408 DEB", "group": "cosmos-1408-debris", "lat": -51.2527449870926, "lon": 46.65451445554911, "alt_km": 439.5852046280161, "timestamp": "2025-12-15T04:01:20.721960+00:00", "meta": {"OBJECT_NAME": "COSMOS 1408 DEB", "OBJECT_ID": "1982-092RU", "EPOCH": "2025-12-14T06:29:42.768960", "MEAN_MOTION": 15.45714536, "ECCENTRICITY": 0.00153705, "INCLINATION": 82.5644, "RA_OF_ASC_NODE": 56.9399, "ARG_OF_PERICENTER": 202.7716, "MEAN_ANOMALY": 157.2853, "EPHEMERIS_TYPE": 0, "CLASSIFICATION_TYPE": "U", "NORAD_CAT_ID": 50032, "ELEMENT_SET_NO": 999, "REV_AT_EPOCH": 22627, "BSTAR": 0.00012439275, "MEAN_MOTION_DOT": 6.073e-05, "MEAN_MOTION_DDOT": 0}, "tle": {"line1": "1 50032U 82092RU  25348.27063390  .00006073  00000+0  12439-3 0  9990", "line2": "2 50032  82.5644  56.9399 0015370 202.7716 157.2853 15.45714536226274"}}, "geometry": {"type": "Point", "coordinates": [46.65451445554911, -51.2527449870926]}}, {"type": "Feature", "properties": {"norad_id": 50058, "name": "COSMOS 1408 DEB", "group": "cosmos-1408-debris", "lat": -48.566763400859976, "lon": 58.34810397547884, "alt_km": 390.6113284710864, "timestamp": "2025-12-15T04:01:20.721982+00:00", "meta": {"OBJECT_NAME": "COSMOS 1408 DEB", "OBJECT_ID": "1982-092SW", "EPOCH": "2025-12-14T06:44:17.068704", "MEAN_MOTION": 15.64218818, "ECCENTRICITY": 0.00162702, "INCLINATION": 82.6134, "RA_OF_ASC_NODE": 67.7285, "ARG_OF_PERICENTER": 93.9145, "MEAN_ANOMALY": 266.3974, "EPHEMERIS_TYPE": 0, "CLASSIFICATION_TYPE": "U", "NORAD_CAT_ID": 50058, "ELEMENT_SET_NO": 999, "REV_AT_EPOCH": 22828, "BSTAR": 0.00034843742, "MEAN_MOTION_DOT": 0.00033458, "MEAN_MOTION_DDOT": 0}, "tle": {"line1": "1 50058U 82092SW  25348.28075311  .00033458  00000+0  34844-3 0  9996", "line2": "2 50058  82.6134  67.7285 0016270  93.9145 266.3974 15.64218818228289"}}, "geometry": {"type": "Point", "coordinates": [58.34810397547884, -48.566763400859976]}}, {"type": "Feature", "properties": {"norad_id": 50404, "name": "COSMOS 1408 DEB", "group": "cosmos-1408-debris", "lat": -15.543456225646239, "lon": -149.6365341183913, "alt_km": 633.6325339016312, "timestamp": "2025-12-15T04:01:20.721996+00:00", "meta": {"OBJECT_NAME": "COSMOS 1408 DEB", "OBJECT_ID": "1982-092ADS", "EPOCH": "2025-12-14T02:42:59.456160", "MEAN_MOTION": 15.14064937, "ECCENTRICITY": 0.01711626, "INCLINATION": 82.2037, "RA_OF_ASC_NODE": 213.6276, "ARG_OF_PERICENTER": 194.1601, "MEAN_ANOMALY": 165.4804, "EPHEMERIS_TYPE": 0, "CLASSIFICATION_TYPE": "U", "NORAD_CAT_ID": 50404, "ELEMENT_SET_NO": 999, "REV_AT_EPOCH": 21214, "BSTAR": 0.003018664, "MEAN_MOTION_DOT": 0.00079961, "MEAN_MOTION_DDOT": 0}, "tle": {"line1": "1 50404U 82092ADS 25348.11318815  .00079961  00000+0  30187-2 0  9996", "line2": "2 50404  82.2037 213.6276 0171162 194.1601 165.4804 15.14064937212142"}}, "geometry": {"type": "Point", "coordinates": [-149.6365341183913, -15.543456225646239]}}, {"type": "Feature", "properties": {"norad_id": 50621, "name": "COSMOS 1408 DEB", "group": "cosmos-1408-debris", "lat": -79.59228288200885, "lon": -63.07229142670493, "alt_km": 413.75931544115065, "timestamp": "2025-12-15T04:01:20.722008+00:00", "meta": {"OBJECT_NAME": "COSMOS 1408 DEB", "OBJECT_ID": "1982-092ALR", "EPOCH": "2025-12-14T06:50:41.683488", "MEAN_MOTION": 15.56764557, "ECCENTRICITY": 0.00289463, "INCLINATION": 82.5703, "RA_OF_ASC_NODE": 72.5716, "ARG_OF_PERICENTER": 146.729, "MEAN_ANOMALY": 213.5793, "EPHEMERIS_TYPE": 0, "CLASSIFICATION_TYPE": "U", "NORAD_CAT_ID": 50621, "ELEMENT_SET_NO": 999, "REV_AT_EPOCH": 22274, "BSTAR": 0.00039734475, "MEAN_MOTION_DOT": 0.00029063, "MEAN_MOTION_DDOT": 0}, "tle": {"line1": "1 50621U 82092ALR 25348.28520467  .00029063  00000+0  39734-3 0  9999", "line2": "2 50621  82.5703  72.5716 0028946 146.7290 213.5793 15.56764557222745"}}, "geometry": {"type": "Point", "coordinates": [-63.07229142670493, -79.59228288200885]}}]}